TRANSPORTER-12 OBJECT AZ
1 62656U 25009AZ  26068.71026235  .00016057  00000+0  54903-3 0  9991
2 62656  97.3981 151.9913 0000987  45.3581 314.7740 15.30349724 63792
STARLINK-32929          
1 63021U 25032S   26068.13819920  .00032135  00000+0  11722-2 0  9997
2 63021  43.0033 339.3401 0001609 273.9739  86.0929 15.27578336 60531
